start=new Date('2023-05-10T00:00:00.000Z').valueOf();
sats=[{"COUNTRY_CODE":"US","RA_OF_ASC_NODE":"25.4842","NORAD_CAT_ID":"49144","MEAN_MOTION":"14.98346787","REF_FRAME":"TEME","APOAPSIS":"574.173","MEAN_MOTION_DDOT":"0.0000000000000","REV_AT_EPOCH":"9086","DECAY_DATE":null,"SITE":"AFWTR","ARG_OF_PERICENTER":"269.9390","LAUNCH_DATE":"2021-09-14","PERIOD":"96.106","EPOCH":"2023-05-09T02:53:54.914208","GP_ID":"231505782","TLE_LINE1":"1 49144U 21082Q   23129.12077447  .00002093  00000-0  18310-3 0  9994","OBJECT_NAME":"STARLINK-3100","INCLINATION":"70.0008","CLASSIFICATION_TYPE":"U","ELEMENT_SET_NO":"999","PERIAPSIS":"569.839","TLE_LINE2":"2 49144  70.0008  25.4842 0003118 269.9390  90.1411 14.98346787 90861","OBJECT_TYPE":"PAYLOAD","FILE":"3904553","ECCENTRICITY":"0.00031180","OBJECT_ID":"2021-082Q","EPHEMERIS_TYPE":"0","RCS_SIZE":"LARGE","MEAN_ELEMENT_THEORY":"SGP4","TIME_SYSTEM":"UTC","BSTAR":"0.00018310000000","CENTER_NAME":"EARTH","SEMIMAJOR_AXIS":"6950.141","MEAN_MOTION_DOT":"0.00002093","MEAN_ANOMALY":"90.1411"},{"RA_OF_ASC_NODE":"344.2602","COUNTRY_CODE":"US","NORAD_CAT_ID":"49145","MEAN_MOTION":"14.98329011","REF_FRAME":"TEME","MEAN_MOTION_DDOT":"0.0000000000000","APOAPSIS":"574.188","REV_AT_EPOCH":"9191","DECAY_DATE":null,"SITE":"AFWTR","ARG_OF_PERICENTER":"266.3420","LAUNCH_DATE":"2021-09-14","PERIOD":"96.107","EPOCH":"2023-05-09T14:30:14.042016","GP_ID":"231506033","TLE_LINE1":"1 49145U 21082R   23129.60432919  .00000994  00000-0  91118-4 0  9993","OBJECT_NAME":"STARLINK-3119","CLASSIFICATION_TYPE":"U","INCLINATION":"69.9998","ELEMENT_SET_NO":"999","PERIAPSIS":"569.933","TLE_LINE2":"2 49145  69.9998 344.2602 0003061 266.3420  93.7389 14.98329011 91916","OBJECT_TYPE":"PAYLOAD","OBJECT_ID":"2021-082R","FILE":"3904553","ECCENTRICITY":"0.00030610","EPHEMERIS_TYPE":"0","RCS_SIZE":"LARGE","MEAN_ELEMENT_THEORY":"SGP4","TIME_SYSTEM":"UTC","BSTAR":"0.00009111800000","CENTER_NAME":"EARTH","SEMIMAJOR_AXIS":"6950.196","MEAN_MOTION_DOT":"0.00000994","MEAN_ANOMALY":"93.7389"},{"SITE":"AFWTR","REV_AT_EPOCH":"9250","DECAY_DATE":null,"ARG_OF_PERICENTER":"265.0053","APOAPSIS":"573.880","MEAN_MOTION_DDOT":"0.0000000000000","REF_FRAME":"TEME","MEAN_MOTION":"14.98339598","COUNTRY_CODE":"US","RA_OF_ASC_NODE":"5.5732","NORAD_CAT_ID":"49146","OBJECT_NAME":"STARLINK-3116","GP_ID":"231506771","TLE_LINE1":"1 49146U 21082S   23129.09133887  .00000912  00000-0  84218-4 0  9992","EPOCH":"2023-05-09T02:11:31.678368","PERIOD":"96.106","LAUNCH_DATE":"2021-09-14","EPHEMERIS_TYPE":"0","FILE":"3904553","ECCENTRICITY":"0.00026640","OBJECT_ID":"2021-082S","OBJECT_TYPE":"PAYLOAD","ELEMENT_SET_NO":"999","CLASSIFICATION_TYPE":"U","INCLINATION":"70.0014","TLE_LINE2":"2 49146  70.0014   5.5732 0002664 265.0053  95.0802 14.98339598 92508","PERIAPSIS":"570.177","MEAN_ANOMALY":"95.0802","SEMIMAJOR_AXIS":"6950.163","MEAN_MOTION_DOT":"0.00000912","TIME_SYSTEM":"UTC","BSTAR":"0.00008421800000","MEAN_ELEMENT_THEORY":"SGP4","CENTER_NAME":"EARTH","RCS_SIZE":"LARGE"},{"RA_OF_ASC_NODE":"345.7615","COUNTRY_CODE":"US","NORAD_CAT_ID":"49147","REF_FRAME":"TEME","MEAN_MOTION":"14.98338594","APOAPSIS":"574.214","MEAN_MOTION_DDOT":"0.0000000000000","SITE":"AFWTR","DECAY_DATE":null,"REV_AT_EPOCH":"9183","ARG_OF_PERICENTER":"268.7017","LAUNCH_DATE":"2021-09-14","EPOCH":"2023-05-09T00:23:02.662656","PERIOD":"96.106","GP_ID":"231505531","TLE_LINE1":"1 49147U 21082T   23129.01600304  .00000749  00000-0  70560-4 0  9991","OBJECT_NAME":"STARLINK-3071","ELEMENT_SET_NO":"999","CLASSIFICATION_TYPE":"U","INCLINATION":"69.9999","TLE_LINE2":"2 49147  69.9999 345.7615 0003141 268.7017  91.3782 14.98338594 91834","PERIAPSIS":"569.848","OBJECT_TYPE":"PAYLOAD","ECCENTRICITY":"0.00031410","FILE":"3904553","OBJECT_ID":"2021-082T","EPHEMERIS_TYPE":"0","RCS_SIZE":"LARGE","BSTAR":"0.00007056000000","TIME_SYSTEM":"UTC","MEAN_ELEMENT_THEORY":"SGP4","CENTER_NAME":"EARTH","SEMIMAJOR_AXIS":"6950.166","MEAN_MOTION_DOT":"0.00000749","MEAN_ANOMALY":"91.3782"},{"MEAN_MOTION":"14.98352933","REF_FRAME":"TEME","COUNTRY_CODE":"US","RA_OF_ASC_NODE":"5.4113","NORAD_CAT_ID":"49148","DECAY_DATE":null,"REV_AT_EPOCH":"9135","SITE":"AFWTR","ARG_OF_PERICENTER":"265.0948","APOAPSIS":"574.059","MEAN_MOTION_DDOT":"0.0000000000000","PERIOD":"96.106","EPOCH":"2023-05-09T03:35:37.535136","LAUNCH_DATE":"2021-09-14","OBJECT_NAME":"STARLINK-3048","GP_ID":"231505282","TLE_LINE1":"1 49148U 21082U   23129.14973999  .00002661  00000-0  23056-3 0  9991","OBJECT_TYPE":"PAYLOAD","CLASSIFICATION_TYPE":"U","INCLINATION":"70.0008","ELEMENT_SET_NO":"999","PERIAPSIS":"569.915","TLE_LINE2":"2 49148  70.0008   5.4113 0002981 265.0948  94.9871 14.98352933 91354","EPHEMERIS_TYPE":"0","FILE":"3904553","ECCENTRICITY":"0.00029810","OBJECT_ID":"2021-082U","MEAN_ELEMENT_THEORY":"SGP4","TIME_SYSTEM":"UTC","BSTAR":"0.00023056000000","CENTER_NAME":"EARTH","RCS_SIZE":"LARGE","MEAN_ANOMALY":"94.9871","SEMIMAJOR_AXIS":"6950.122","MEAN_MOTION_DOT":"0.00002661"},{"GP_ID":"231506534","TLE_LINE1":"1 49149U 21082V   23129.11660379  .00001197  00000-0  10802-3 0  9992","OBJECT_NAME":"STARLINK-3053","LAUNCH_DATE":"2021-09-14","PERIOD":"96.106","EPOCH":"2023-05-09T02:47:54.567456","APOAPSIS":"574.166","MEAN_MOTION_DDOT":"0.0000000000000","ARG_OF_PERICENTER":"270.3971","REV_AT_EPOCH":"9205","DECAY_DATE":null,"SITE":"AFWTR","NORAD_CAT_ID":"49149","COUNTRY_CODE":"US","RA_OF_ASC_NODE":"25.4989","MEAN_MOTION":"14.98343220","REF_FRAME":"TEME","MEAN_MOTION_DOT":"0.00001197","SEMIMAJOR_AXIS":"6950.152","MEAN_ANOMALY":"89.6833","RCS_SIZE":"LARGE","CENTER_NAME":"EARTH","MEAN_ELEMENT_THEORY":"SGP4","TIME_SYSTEM":"UTC","BSTAR":"0.00010802000000","OBJECT_ID":"2021-082V","FILE":"3904553","ECCENTRICITY":"0.00030920","EPHEMERIS_TYPE":"0","PERIAPSIS":"569.868","TLE_LINE2":"2 49149  70.0008  25.4989 0003092 270.3971  89.6833 14.98343220 92053","CLASSIFICATION_TYPE":"U","INCLINATION":"70.0008","ELEMENT_SET_NO":"999","OBJECT_TYPE":"PAYLOAD"},{"EPOCH":"2023-05-09T02:41:54.000384","PERIOD":"96.106","LAUNCH_DATE":"2021-09-14","OBJECT_NAME":"STARLINK-3104","GP_ID":"231506271","TLE_LINE1":"1 49150U 21082W   23129.11243056  .00001368  00000-0  12237-3 0  9997","REF_FRAME":"TEME","MEAN_MOTION":"14.98344460","COUNTRY_CODE":"US","RA_OF_ASC_NODE":"25.5115","NORAD_CAT_ID":"49150","SITE":"AFWTR","DECAY_DATE":null,"REV_AT_EPOCH":"9205","ARG_OF_PERICENTER":"270.7146","APOAPSIS":"574.153","MEAN_MOTION_DDOT":"0.0000000000000","BSTAR":"0.00012237000000","TIME_SYSTEM":"UTC","MEAN_ELEMENT_THEORY":"SGP4","CENTER_NAME":"EARTH","RCS_SIZE":"LARGE","MEAN_ANOMALY":"89.3661","SEMIMAJOR_AXIS":"6950.148","MEAN_MOTION_DOT":"0.00001368","OBJECT_TYPE":"PAYLOAD","ELEMENT_SET_NO":"999","INCLINATION":"70.0008","CLASSIFICATION_TYPE":"U","TLE_LINE2":"2 49150  70.0008  25.5115 0003079 270.7146  89.3661 14.98344460 92053","PERIAPSIS":"569.873","EPHEMERIS_TYPE":"0","FILE":"3904553","OBJECT_ID":"2021-082W","ECCENTRICITY":"0.00030790"},{"EPHEMERIS_TYPE":"0","OBJECT_ID":"2021-082X","FILE":"3904553","ECCENTRICITY":"0.00031170","OBJECT_TYPE":"PAYLOAD","PERIAPSIS":"569.903","TLE_LINE2":"2 49151  69.9995 344.2904 0003117 268.0282  92.0520 14.98326403 93117","INCLINATION":"69.9995","CLASSIFICATION_TYPE":"U","ELEMENT_SET_NO":"999","MEAN_ANOMALY":"92.0520","MEAN_MOTION_DOT":"0.00000919","SEMIMAJOR_AXIS":"6950.204","CENTER_NAME":"EARTH","MEAN_ELEMENT_THEORY":"SGP4","TIME_SYSTEM":"UTC","BSTAR":"0.00008481100000","RCS_SIZE":"LARGE","ARG_OF_PERICENTER":"268.0282","DECAY_DATE":null,"REV_AT_EPOCH":"9311","SITE":"AFWTR","APOAPSIS":"574.235","MEAN_MOTION_DDOT":"0.0000000000000","MEAN_MOTION":"14.98326403","REF_FRAME":"TEME","NORAD_CAT_ID":"49151","COUNTRY_CODE":"US","RA_OF_ASC_NODE":"344.2904","OBJECT_NAME":"STARLINK-3102","GP_ID":"231505031","TLE_LINE1":"1 49151U 21082X   23129.59598711  .00000919  00000-0  84811-4 0  9990","PERIOD":"96.107","EPOCH":"2023-05-09T14:18:13.286304","LAUNCH_DATE":"2021-09-14"},{"MEAN_ANOMALY":"92.5551","SEMIMAJOR_AXIS":"6950.170","MEAN_MOTION_DOT":"0.00000109","MEAN_ELEMENT_THEORY":"SGP4","BSTAR":"0.00001690100000","TIME_SYSTEM":"UTC","CENTER_NAME":"EARTH","RCS_SIZE":"LARGE","EPHEMERIS_TYPE":"0","FILE":"3904553","ECCENTRICITY":"0.00031060","OBJECT_ID":"2021-082Y","OBJECT_TYPE":"PAYLOAD","CLASSIFICATION_TYPE":"U","INCLINATION":"69.9988","ELEMENT_SET_NO":"999","PERIAPSIS":"569.876","TLE_LINE2":"2 49152  69.9988 345.6929 0003106 267.5252  92.5551 14.98337461 92957","OBJECT_NAME":"STARLINK-3081","TLE_LINE1":"1 49152U 21082Y   23129.03686570  .00000109  00000-0  16901-4 0  9997","GP_ID":"231505783","PERIOD":"96.107","EPOCH":"2023-05-09T00:53:05.196480","LAUNCH_DATE":"2021-09-14","REV_AT_EPOCH":"9295","DECAY_DATE":null,"SITE":"AFWTR","ARG_OF_PERICENTER":"267.5252","MEAN_MOTION_DDOT":"0.0000000000000","APOAPSIS":"574.194","MEAN_MOTION":"14.98337461","REF_FRAME":"TEME","RA_OF_ASC_NODE":"345.6929","COUNTRY_CODE":"US","NORAD_CAT_ID":"49152"},{"EPHEMERIS_TYPE":"0","ECCENTRICITY":"0.00030460","FILE":"3904553","OBJECT_ID":"2021-082Z","OBJECT_TYPE":"PAYLOAD","TLE_LINE2":"2 49153  69.9990 345.8332 0003046 269.4936  90.5874 14.98339765 93039","PERIAPSIS":"569.911","ELEMENT_SET_NO":"999","INCLINATION":"69.9990","CLASSIFICATION_TYPE":"U","MEAN_ANOMALY":"90.5874","MEAN_MOTION_DOT":"0.00000611","SEMIMAJOR_AXIS":"6950.163","CENTER_NAME":"EARTH","BSTAR":"0.00005902300000","TIME_SYSTEM":"UTC","MEAN_ELEMENT_THEORY":"SGP4","RCS_SIZE":"LARGE","ARG_OF_PERICENTER":"269.4936","SITE":"AFWTR","REV_AT_EPOCH":"9303","DECAY_DATE":null,"MEAN_MOTION_DDOT":"0.0000000000000","APOAPSIS":"574.145","REF_FRAME":"TEME","MEAN_MOTION":"14.98339765","NORAD_CAT_ID":"49153","RA_OF_ASC_NODE":"345.8332","COUNTRY_CODE":"US","OBJECT_NAME":"STARLINK-3072","GP_ID":"231506034","TLE_LINE1":"1 49153U 21082Z   23128.98679567  .00000611  00000-0  59023-4 0  9999","EPOCH":"2023-05-08T23:40:59.145888","PERIOD":"96.106","LAUNCH_DATE":"2021-09-14"}];
